IRIDIUM 63              
1 25286U 98021B   25054.91454328  .00000771  00000+0  25668-3 0  9999
2 25286  86.4003 129.6596 0002013  95.4236 264.7190 14.36392054407589
IRIDIUM 69              
1 25319U 98026A   25054.78739412  .00001111  00000+0  34124-3 0  9992
2 25319  86.4024 143.3331 0003906  66.4069 293.7540 14.40777063406732
IRIDIUM 71              
1 25320U 98026B   25054.74042228  .00000949  00000+0  28925-3 0  9992
2 25320  86.4013 138.0686 0004301  98.6023 261.5664 14.40990260407257
IRIDIUM 73              
1 25344U 98032C   25054.66649068  .00001173  00000+0  28887-3 0  9998
2 25344  86.4367  95.0482 0002617  78.4387 281.7112 14.51450158414099
IRIDIUM 82              
1 25467U 98051A   25054.79883216  .00030120  00000+0  10487-2 0  9994
2 25467  86.3755 165.1608 0097580   6.0643 354.1757 15.25015353406636
